{"spkid": "50335072", "covariance": {"labels": ["e", "q", "tp", "node", "peri", "i"], "data": [["3.699253753968474E-15", "-6.438648498649947E-15", "1.93254645713635E-12", "3.053212917570399E-13", "6.004040589712923E-13", "-2.022611471529346E-14"], ["-6.438648498649947E-15", "1.120815673330827E-14", "-3.341228237367869E-12", "-5.280274054923803E-13", "-1.036178100711037E-12", "3.711562509636834E-14"], ["1.93254645713635E-12", "-3.341228237367869E-12", "1.454688038132771E-9", "2.258109467393245E-10", "5.00787398952902E-10", "1.85613216819255E-11"], ["3.053212917570399E-13", "-5.280274054923803E-13", "2.258109467393245E-10", "2.152214764013209E-9", "-2.02924307331502E-9", "2.80383644686526E-10"], ["6.004040589712923E-13", "-1.036178100711037E-12", "5.00787398952902E-10", "-2.02924307331502E-9", "2.285413006363365E-9", "-2.646624777180728E-10"], ["-2.022611471529346E-14", "3.711562509636834E-14", "1.85613216819255E-11", "2.80383644686526E-10", "-2.646624777180728E-10", "9.111592946958108E-11"]], "elements": [{"label": "e", "title": "eccentricity", "value": ".5302203789938592", "units": null, "sigma": 6.08214908890638e-08, "name": "e"}, {"label": "q", "name": "q", "sigma": 1.05868582371298e-07, "units": "au", "title": "perihelion distance", "value": ".8388873018584475"}, {"label": "tp", "name": "tp", "sigma": 3.81403728106159e-05, "units": "TDB", "value": "2459171.905105817020", "title": "time of perihelion passage"}, {"name": "om", "sigma": 4.6391968744743e-05, "title": "longitude of the ascending node", "value": "217.3084869115313", "units": "deg", "label": "node"}, {"label": "peri", "title": "argument of perihelion", "value": "108.7538599927997", "units": "deg", "sigma": 4.78059934146689e-05, "name": "w"}, {"label": "i", "units": "deg", "title": "inclination", "value": "5.806754848030702", "sigma": 9.54546643541221e-06, "name": "i"}], "epoch": "2459386.5"}, "elements": [{"label": "e", "units": null, "value": ".5299433958584597", "title": "eccentricity", "sigma": "6.0698E-8", "name": "e"}, {"units": "au", "title": "semi-major axis", "value": "1.78597894374366", "sigma": "5.3703E-9", "name": "a", "label": "a"}, {"label": "q", "name": "q", "sigma": "1.0607E-7", "units": "au", "title": "perihelion distance", "value": ".8395111973644396"}, {"label": "i", "sigma": "9.5441E-6", "name": "i", "value": "5.807543326469501", "title": "inclination; angle with respect to x-y ecliptic plane", "units": "deg"}, {"name": "om", "sigma": "4.6391E-5", "units": "deg", "value": "217.2316158760033", "title": "longitude of the ascending node", "label": "node"}, {"label": "peri", "sigma": "4.7789E-5", "name": "w", "value": "108.8283347329279", "title": "argument of perihelion", "units": "deg"}, {"sigma": "2.002E-5", "name": "ma", "units": "deg", "title": "mean anomaly", "value": "117.8494761466601", "label": "M"}, {"label": "tp", "value": "2460915.110438602848", "title": "time of perihelion passage", "units": "TDB", "sigma": "4.7251E-5", "name": "tp"}, {"label": "period", "value": "871.7920983808001", "title": "sidereal orbital period", "units": "d", "sigma": "3.9321E-6", "name": "per"}, {"title": "mean motion", "value": ".4129424901517649", "units": "deg/d", "sigma": "1.8625E-9", "name": "n", "label": "n"}, {"sigma": "8.2162E-9", "name": "ad", "title": "aphelion distance", "value": "2.732446690122879", "units": "au", "label": "Q"}], "epoch": "2461200.5"}